[{"OBJECT_NAME":"STARLINK-1364","OBJECT_ID":"2020-025BL","EPOCH":"2026-03-09T22:42:39.507840","MEAN_MOTION":15.49541195,"ECCENTRICITY":0.00079481,"INCLINATION":53.0507,"RA_OF_ASC_NODE":61.9794,"ARG_OF_PERICENTER":58.2992,"MEAN_ANOMALY":301.8789,"EPHEMERIS_TYPE":0,"CLASSIFICATION_TYPE":"U","NORAD_CAT_ID":45589,"ELEMENT_SET_NO":999,"REV_AT_EPOCH":32573,"BSTAR":0.001962035,"MEAN_MOTION_DOT":0.00111268,"MEAN_MOTION_DDOT":0},{"OBJECT_NAME":"OUTPOST MISSION 2","OBJECT_ID":"2023-174CG","EPOCH":"2026-03-09T22:51:56.861280","MEAN_MOTION":15.50733673,"ECCENTRICITY":0.00069991,"INCLINATION":97.3967,"RA_OF_ASC_NODE":158.6721,"ARG_OF_PERICENTER":123.0505,"MEAN_ANOMALY":237.142,"EPHEMERIS_TYPE":0,"CLASSIFICATION_TYPE":"U","NORAD_CAT_ID":58334,"ELEMENT_SET_NO":999,"REV_AT_EPOCH":13041,"BSTAR":0.00067138638,"MEAN_MOTION_DOT":0.00038683,"MEAN_MOTION_DDOT":0}]
